CCSDS_OMM_VERS = 2.0
CREATION_DATE  = 
ORIGINATOR     = 

OBJECT_NAME    = SL-4 R/B
OBJECT_ID      = 2014-021B
CENTER_NAME    = EARTH
REF_FRAME      = TEME
TIME_SYSTEM    = UTC
MEAN_ELEMENT_THEORY = SGP/SGP4

EPOCH          = 2026-02-14T12:12:08.177472
MEAN_MOTION    = 15.38403015
ECCENTRICITY   = .0098952
INCLINATION    = 51.6068
RA_OF_ASC_NODE = 90.2975
ARG_OF_PERICENTER = 18.4928
MEAN_ANOMALY   = 341.9612

EPHEMERIS_TYPE = 0
CLASSIFICATION_TYPE = U
NORAD_CAT_ID   = 39679
ELEMENT_SET_NO = 999
REV_AT_EPOCH   = 65270
BSTAR          = .29523E-3
MEAN_MOTION_DOT = .13018E-3
MEAN_MOTION_DDOT = 0

CCSDS_OMM_VERS = 2.0
CREATION_DATE  = 
ORIGINATOR     = 

OBJECT_NAME    = ALOS-2
OBJECT_ID      = 2014-029A
CENTER_NAME    = EARTH
REF_FRAME      = TEME
TIME_SYSTEM    = UTC
MEAN_ELEMENT_THEORY = SGP/SGP4

EPOCH          = 2026-02-15T04:43:52.699872
MEAN_MOTION    = 14.79455002
ECCENTRICITY   = .0001576
INCLINATION    = 97.9209
RA_OF_ASC_NODE = 145.1188
ARG_OF_PERICENTER = 104.7261
MEAN_ANOMALY   = 255.4126

EPHEMERIS_TYPE = 0
CLASSIFICATION_TYPE = U
NORAD_CAT_ID   = 39766
ELEMENT_SET_NO = 999
REV_AT_EPOCH   = 63354
BSTAR          = -.32479E-5
MEAN_MOTION_DOT = -.76E-6
MEAN_MOTION_DDOT = 0

CCSDS_OMM_VERS = 2.0
CREATION_DATE  = 
ORIGINATOR     = 

OBJECT_NAME    = YAOGAN-29
OBJECT_ID      = 2015-069A
CENTER_NAME    = EARTH
REF_FRAME      = TEME
TIME_SYSTEM    = UTC
MEAN_ELEMENT_THEORY = SGP/SGP4

EPOCH          = 2026-02-15T04:35:11.021856
MEAN_MOTION    = 14.82969762
ECCENTRICITY   = .0002858
INCLINATION    = 98.0174
RA_OF_ASC_NODE = 74.5586
ARG_OF_PERICENTER = 73.8662
MEAN_ANOMALY   = 286.2865

EPHEMERIS_TYPE = 0
CLASSIFICATION_TYPE = U
NORAD_CAT_ID   = 41038
ELEMENT_SET_NO = 999
REV_AT_EPOCH   = 55254
BSTAR          = .54677E-4
MEAN_MOTION_DOT = .39E-5
MEAN_MOTION_DDOT = 0

CCSDS_OMM_VERS = 2.0
CREATION_DATE  = 
ORIGINATOR     = 

OBJECT_NAME    = ASTRO-H (HITOMI)
OBJECT_ID      = 2016-012A
CENTER_NAME    = EARTH
REF_FRAME      = TEME
TIME_SYSTEM    = UTC
MEAN_ELEMENT_THEORY = SGP/SGP4

EPOCH          = 2026-02-14T15:05:47.831712
MEAN_MOTION    = 15.09834383
ECCENTRICITY   = .0009842
INCLINATION    = 30.9987
RA_OF_ASC_NODE = 145.3423
ARG_OF_PERICENTER = 100.7351
MEAN_ANOMALY   = 259.4395

EPHEMERIS_TYPE = 0
CLASSIFICATION_TYPE = U
NORAD_CAT_ID   = 41337
ELEMENT_SET_NO = 999
REV_AT_EPOCH   = 54874
BSTAR          = .19039E-3
MEAN_MOTION_DOT = .3253E-4
MEAN_MOTION_DDOT = 0

CCSDS_OMM_VERS = 2.0
CREATION_DATE  = 
ORIGINATOR     = 

OBJECT_NAME    = HXMT (HUIYAN)
OBJECT_ID      = 2017-034A
CENTER_NAME    = EARTH
REF_FRAME      = TEME
TIME_SYSTEM    = UTC
MEAN_ELEMENT_THEORY = SGP/SGP4

EPOCH          = 2026-02-15T04:45:22.364928
MEAN_MOTION    = 15.17166913
ECCENTRICITY   = .0030587
INCLINATION    = 43.0142
RA_OF_ASC_NODE = 141.6870
ARG_OF_PERICENTER = 92.4716
MEAN_ANOMALY   = 267.9634

EPHEMERIS_TYPE = 0
CLASSIFICATION_TYPE = U
NORAD_CAT_ID   = 42758
ELEMENT_SET_NO = 999
REV_AT_EPOCH   = 47912
BSTAR          = .30472E-3
MEAN_MOTION_DOT = .5995E-4
MEAN_MOTION_DDOT = 0

CCSDS_OMM_VERS = 2.0
CREATION_DATE  = 
ORIGINATOR     = 

OBJECT_NAME    = CZ-2C R/B
OBJECT_ID      = 2018-054D
CENTER_NAME    = EARTH
REF_FRAME      = TEME
TIME_SYSTEM    = UTC
MEAN_ELEMENT_THEORY = SGP/SGP4

EPOCH          = 2026-02-15T04:33:55.515168
MEAN_MOTION    = 16.01888873
ECCENTRICITY   = .0011742
INCLINATION    = 35.1280
RA_OF_ASC_NODE = 97.0779
ARG_OF_PERICENTER = 90.4923
MEAN_ANOMALY   = 269.7164

EPHEMERIS_TYPE = 0
CLASSIFICATION_TYPE = U
NORAD_CAT_ID   = 43521
ELEMENT_SET_NO = 999
REV_AT_EPOCH   = 42528
BSTAR          = .73379E-3
MEAN_MOTION_DOT = .444295E-2
MEAN_MOTION_DDOT = .85938E-4

CCSDS_OMM_VERS = 2.0
CREATION_DATE  = 
ORIGINATOR     = 

OBJECT_NAME    = SAOCOM 1A
OBJECT_ID      = 2018-076A
CENTER_NAME    = EARTH
REF_FRAME      = TEME
TIME_SYSTEM    = UTC
MEAN_ELEMENT_THEORY = SGP/SGP4

EPOCH          = 2026-02-15T03:28:00.316704
MEAN_MOTION    = 14.82141768
ECCENTRICITY   = .0001365
INCLINATION    = 97.8873
RA_OF_ASC_NODE = 234.6357
ARG_OF_PERICENTER = 83.0651
MEAN_ANOMALY   = 277.0718

EPHEMERIS_TYPE = 0
CLASSIFICATION_TYPE = U
NORAD_CAT_ID   = 43641
ELEMENT_SET_NO = 999
REV_AT_EPOCH   = 39802
BSTAR          = .523E-4
MEAN_MOTION_DOT = .364E-5
MEAN_MOTION_DDOT = 0

CCSDS_OMM_VERS = 2.0
CREATION_DATE  = 
ORIGINATOR     = 

OBJECT_NAME    = H-2A R/B
OBJECT_ID      = 2018-084L
CENTER_NAME    = EARTH
REF_FRAME      = TEME
TIME_SYSTEM    = UTC
MEAN_ELEMENT_THEORY = SGP/SGP4

EPOCH          = 2026-02-15T03:11:57.469056
MEAN_MOTION    = 15.40335044
ECCENTRICITY   = .0026343
INCLINATION    = 98.8756
RA_OF_ASC_NODE = 258.7172
ARG_OF_PERICENTER = 100.8959
MEAN_ANOMALY   = 259.5249

EPHEMERIS_TYPE = 0
CLASSIFICATION_TYPE = U
NORAD_CAT_ID   = 43682
ELEMENT_SET_NO = 999
REV_AT_EPOCH   = 40230
BSTAR          = .41896E-3
MEAN_MOTION_DOT = .17013E-3
MEAN_MOTION_DDOT = 0

CCSDS_OMM_VERS = 2.0
CREATION_DATE  = 
ORIGINATOR     = 

OBJECT_NAME    = SAOCOM 1B
OBJECT_ID      = 2020-059A
CENTER_NAME    = EARTH
REF_FRAME      = TEME
TIME_SYSTEM    = UTC
MEAN_ELEMENT_THEORY = SGP/SGP4

EPOCH          = 2026-02-15T04:13:01.650720
MEAN_MOTION    = 14.82144667
ECCENTRICITY   = .000147
INCLINATION    = 97.8872
RA_OF_ASC_NODE = 233.7645
ARG_OF_PERICENTER = 84.6660
MEAN_ANOMALY   = 275.4721

EPHEMERIS_TYPE = 0
CLASSIFICATION_TYPE = U
NORAD_CAT_ID   = 46265
ELEMENT_SET_NO = 999
REV_AT_EPOCH   = 29541
BSTAR          = -.36375E-5
MEAN_MOTION_DOT = -.81E-6
MEAN_MOTION_DDOT = 0

CCSDS_OMM_VERS = 2.0
CREATION_DATE  = 
ORIGINATOR     = 

OBJECT_NAME    = CSS (TIANHE)
OBJECT_ID      = 2021-035A
CENTER_NAME    = EARTH
REF_FRAME      = TEME
TIME_SYSTEM    = UTC
MEAN_ELEMENT_THEORY = SGP/SGP4

EPOCH          = 2026-02-15T04:23:37.633344
MEAN_MOTION    = 15.59646494
ECCENTRICITY   = .0004127
INCLINATION    = 41.4683
RA_OF_ASC_NODE = 345.0034
ARG_OF_PERICENTER = 100.2382
MEAN_ANOMALY   = 259.8922

EPHEMERIS_TYPE = 0
CLASSIFICATION_TYPE = U
NORAD_CAT_ID   = 48274
ELEMENT_SET_NO = 999
REV_AT_EPOCH   = 27409
BSTAR          = .27285E-3
MEAN_MOTION_DOT = .22122E-3
MEAN_MOTION_DDOT = 0

CCSDS_OMM_VERS = 2.0
CREATION_DATE  = 
ORIGINATOR     = 

OBJECT_NAME    = COSMOS 2550
OBJECT_ID      = 2021-056A
CENTER_NAME    = EARTH
REF_FRAME      = TEME
TIME_SYSTEM    = UTC
MEAN_ELEMENT_THEORY = SGP/SGP4

EPOCH          = 2026-02-14T21:22:02.081568
MEAN_MOTION    = 15.33828936
ECCENTRICITY   = .0008401
INCLINATION    = 67.1422
RA_OF_ASC_NODE = 109.8973
ARG_OF_PERICENTER = 269.4635
MEAN_ANOMALY   = 90.5557

EPHEMERIS_TYPE = 0
CLASSIFICATION_TYPE = U
NORAD_CAT_ID   = 48865
ELEMENT_SET_NO = 999
REV_AT_EPOCH   = 25996
BSTAR          = .45523E-5
MEAN_MOTION_DOT = -.42E-6
MEAN_MOTION_DDOT = 0

CCSDS_OMM_VERS = 2.0
CREATION_DATE  = 
ORIGINATOR     = 

OBJECT_NAME    = CZ-2C R/B
OBJECT_ID      = 2022-058K
CENTER_NAME    = EARTH
REF_FRAME      = TEME
TIME_SYSTEM    = UTC
MEAN_ELEMENT_THEORY = SGP/SGP4

EPOCH          = 2026-02-15T01:29:19.854240
MEAN_MOTION    = 15.52600140
ECCENTRICITY   = .0042124
INCLINATION    = 50.1885
RA_OF_ASC_NODE = 74.5394
ARG_OF_PERICENTER = 104.5135
MEAN_ANOMALY   = 256.0513

EPHEMERIS_TYPE = 0
CLASSIFICATION_TYPE = U
NORAD_CAT_ID   = 52794
ELEMENT_SET_NO = 999
REV_AT_EPOCH   = 20661
BSTAR          = .39722E-3
MEAN_MOTION_DOT = .25452E-3
MEAN_MOTION_DDOT = 0

