SL-4 R/B                
1 39679U 14021B   26045.50842798  .00013018  00000+0  29523-3 0  9998
2 39679  51.6068  90.2975 0098952  18.4928 341.9612 15.38403015652705
ALOS-2                  
1 39766U 14029A   26046.19713773 -.00000076  00000+0 -32479-5 0  9997
2 39766  97.9209 145.1188 0001576 104.7261 255.4126 14.79455002633540
YAOGAN-29               
1 41038U 15069A   26046.19109979  .00000390  00000+0  54677-4 0  9994
2 41038  98.0174  74.5586 0002858  73.8662 286.2865 14.82969762552549
ASTRO-H (HITOMI)        
1 41337U 16012A   26045.62902583  .00003253  00000+0  19039-3 0  9997
2 41337  30.9987 145.3423 0009842 100.7351 259.4395 15.09834383548747
HXMT (HUIYAN)           
1 42758U 17034A   26046.19817552  .00005995  00000+0  30472-3 0  9993
2 42758  43.0142 141.6870 0030587  92.4716 267.9634 15.17166913479121
CZ-2C R/B               
1 43521U 18054D   26046.19022587  .00444295  85938-4  73379-3 0  9992
2 43521  35.1280  97.0779 0011742  90.4923 269.7164 16.01888873425283
SAOCOM 1A               
1 43641U 18076A   26046.14444811  .00000364  00000+0  52300-4 0  9991
2 43641  97.8873 234.6357 0001365  83.0651 277.0718 14.82141768398026
H-2A R/B                
1 43682U 18084L   26046.13330404  .00017013  00000+0  41896-3 0  9992
2 43682  98.8756 258.7172 0026343 100.8959 259.5249 15.40335044402304
SAOCOM 1B               
1 46265U 20059A   26046.17571355 -.00000081  00000+0 -36375-5 0  9990
2 46265  97.8872 233.7645 0001470  84.6660 275.4721 14.82144667295410
CSS (TIANHE)            
1 48274U 21035A   26046.18307446  .00022122  00000+0  27285-3 0  9992
2 48274  41.4683 345.0034 0004127 100.2382 259.8922 15.59646494274094
COSMOS 2550             
1 48865U 21056A   26045.89030187 -.00000042  00000+0  45523-5 0  9998
2 48865  67.1422 109.8973 0008401 269.4635  90.5557 15.33828936259960
CZ-2C R/B               
1 52794U 22058K   26046.06203535  .00025452  00000+0  39722-3 0  9999
2 52794  50.1885  74.5394 0042124 104.5135 256.0513 15.52600140206611
